[{"OBJECT_NAME":"HULIANWANG JISHU SHIYAN 4B","OBJECT_ID":"2023-212B","EPOCH":"2026-03-09T21:54:26.285472","MEAN_MOTION":13.41451244,"ECCENTRICITY":5.706e-5,"INCLINATION":49.9995,"RA_OF_ASC_NODE":347.8305,"ARG_OF_PERICENTER":162.1105,"MEAN_ANOMALY":197.9792,"EPHEMERIS_TYPE":0,"CLASSIFICATION_TYPE":"U","NORAD_CAT_ID":58692,"ELEMENT_SET_NO":999,"REV_AT_EPOCH":10792,"BSTAR":8.9569784e-5,"MEAN_MOTION_DOT":-7.8e-7,"MEAN_MOTION_DDOT":0},{"OBJECT_NAME":"COSMOS 2499 DEB","OBJECT_ID":"2014-028BZ","EPOCH":"2026-02-23T23:27:56.662560","MEAN_MOTION":12.96075568,"ECCENTRICITY":0.02305075,"INCLINATION":82.4812,"RA_OF_ASC_NODE":317.1335,"ARG_OF_PERICENTER":200.3831,"MEAN_ANOMALY":158.7966,"EPHEMERIS_TYPE":0,"CLASSIFICATION_TYPE":"U","NORAD_CAT_ID":60613,"ELEMENT_SET_NO":999,"REV_AT_EPOCH":13220,"BSTAR":0.008015025,"MEAN_MOTION_DOT":2.586e-5,"MEAN_MOTION_DDOT":0}]
